{
  "type": "FeatureCollection",
  "features": [
    {
      "type": "Feature",
      "properties": {
        "norad_id": 44334,
        "name": "EUTELSAT 7C",
        "group": "eutelsat",
        "lat": 0.0320512602178992,
        "lon": -28.917279508852285,
        "alt_km": 35784.36049509708,
        "timestamp": "2025-12-17T15:50:09.448495+00:00",
        "meta_object_name": "EUTELSAT 7C",
        "meta_object_id": "2019-034B",
        "meta_epoch": "2025-12-16T15:06:04.817088",
        "meta_mean_motion": 1.00271584,
        "meta_eccentricity": 0.00030764,
        "meta_inclination": 0.0725,
        "meta_ra_of_asc_node": 176.9051,
        "meta_arg_of_pericenter": 71.4959,
        "meta_mean_anomaly": 70.6234,
        "meta_ephemeris_type": 0,
        "meta_classification_type": "U",
        "meta_norad_cat_id": 44334,
        "meta_element_set_no": 999,
        "meta_rev_at_epoch": 500,
        "meta_bstar": 0,
        "meta_mean_motion_dot": 7.2e-07,
        "meta_mean_motion_ddot": 0,
        "tle_line1": "1 44334U 19034B   25350.62922242  .00000072  00000+0  00000+0 0  9996",
        "tle_line2": "2 44334   0.0725 176.9051 0003076  71.4959  70.6234  1.00271584  5009"
      },
      "geometry": {
        "type": "Point",
        "coordinates": [
          -28.917279508852285,
          0.0320512602178992
        ]
      }
    },
    {
      "type": "Feature",
      "properties": {
        "norad_id": 44624,
        "name": "EUTELSAT 5 WEST B",
        "group": "eutelsat",
        "lat": -0.021094878889965644,
        "lon": -40.89361212652249,
        "alt_km": 35777.422867026966,
        "timestamp": "2025-12-17T15:50:09.448507+00:00",
        "meta_object_name": "EUTELSAT 5 WEST B",
        "meta_object_id": "2019-067A",
        "meta_epoch": "2025-12-17T04:44:26.920320",
        "meta_mean_motion": 1.00273488,
        "meta_eccentricity": 0.00031861,
        "meta_inclination": 0.0711,
        "meta_ra_of_asc_node": 328.9443,
        "meta_arg_of_pericenter": 297.4561,
        "meta_mean_anomaly": 245.8033,
        "meta_ephemeris_type": 0,
        "meta_classification_type": "U",
        "meta_norad_cat_id": 44624,
        "meta_element_set_no": 999,
        "meta_rev_at_epoch": 2261,
        "meta_bstar": 0,
        "meta_mean_motion_dot": -1.7e-07,
        "meta_mean_motion_ddot": 0,
        "tle_line1": "1 44624U 19067A   25351.19753380 -.00000017  00000+0  00000+0 0  9992",
        "tle_line2": "2 44624   0.0711 328.9443 0003186 297.4561 245.8033  1.00273488 22615"
      },
      "geometry": {
        "type": "Point",
        "coordinates": [
          -40.89361212652249,
          -0.021094878889965644
        ]
      }
    },
    {
      "type": "Feature",
      "properties": {
        "norad_id": 45027,
        "name": "EUTELSAT KONNECT",
        "group": "eutelsat",
        "lat": -0.0641165339689739,
        "lon": -28.736152969118535,
        "alt_km": 35782.22451573595,
        "timestamp": "2025-12-17T15:50:09.448519+00:00",
        "meta_object_name": "EUTELSAT KONNECT",
        "meta_object_id": "2020-005B",
        "meta_epoch": "2025-12-16T16:48:56.195424",
        "meta_mean_motion": 1.00270775,
        "meta_eccentricity": 0.000134,
        "meta_inclination": 0.0734,
        "meta_ra_of_asc_node": 96,
        "meta_arg_of_pericenter": 191.486,
        "meta_mean_anomaly": 57.5312,
        "meta_ephemeris_type": 0,
        "meta_classification_type": "U",
        "meta_norad_cat_id": 45027,
        "meta_element_set_no": 999,
        "meta_rev_at_epoch": 2250,
        "meta_bstar": 0,
        "meta_mean_motion_dot": 7.3e-07,
        "meta_mean_motion_ddot": 0,
        "tle_line1": "1 45027U 20005B   25350.70065041  .00000073  00000+0  00000+0 0  9991",
        "tle_line2": "2 45027   0.0734  96.0000 0001340 191.4860  57.5312  1.00270775 22507"
      },
      "geometry": {
        "type": "Point",
        "coordinates": [
          -28.736152969118535,
          -0.0641165339689739
        ]
      }
    },
    {
      "type": "Feature",
      "properties": {
        "norad_id": 49056,
        "name": "EUTELSAT QUANTUM",
        "group": "eutelsat",
        "lat": 0.010175322184001764,
        "lon": 11.828111459235311,
        "alt_km": 35786.55602110007,
        "timestamp": "2025-12-17T15:50:09.448530+00:00",
        "meta_object_name": "EUTELSAT QUANTUM",
        "meta_object_id": "2021-069B",
        "meta_epoch": "2025-12-16T10:09:25.725024",
        "meta_mean_motion": 1.00273452,
        "meta_eccentricity": 0.00035682,
        "meta_inclination": 0.0118,
        "meta_ra_of_asc_node": 5.206,
        "meta_arg_of_pericenter": 272.6079,
        "meta_mean_anomaly": 7.5753,
        "meta_ephemeris_type": 0,
        "meta_classification_type": "U",
        "meta_norad_cat_id": 49056,
        "meta_element_set_no": 999,
        "meta_rev_at_epoch": 1609,
        "meta_bstar": 0,
        "meta_mean_motion_dot": 1.49e-06,
        "meta_mean_motion_ddot": 0,
        "tle_line1": "1 49056U 21069B   25350.42321441  .00000149  00000+0  00000+0 0  9990",
        "tle_line2": "2 49056   0.0118   5.2060 0003568 272.6079   7.5753  1.00273452 16091"
      },
      "geometry": {
        "type": "Point",
        "coordinates": [
          11.828111459235311,
          0.010175322184001764
        ]
      }
    },
    {
      "type": "Feature",
      "properties": {
        "norad_id": 53765,
        "name": "EUTELSAT KONNECT VHTS",
        "group": "eutelsat",
        "lat": -0.052381596296529054,
        "lon": -33.18229806616602,
        "alt_km": 35785.41118763168,
        "timestamp": "2025-12-17T15:50:09.448542+00:00",
        "meta_object_name": "EUTELSAT KONNECT VHTS",
        "meta_object_id": "2022-110A",
        "meta_epoch": "2025-12-16T21:55:49.974240",
        "meta_mean_motion": 1.00270385,
        "meta_eccentricity": 0.00023075,
        "meta_inclination": 0.0652,
        "meta_ra_of_asc_node": 101.283,
        "meta_arg_of_pericenter": 141.3704,
        "meta_mean_anomaly": 174.8367,
        "meta_ephemeris_type": 0,
        "meta_classification_type": "U",
        "meta_norad_cat_id": 53765,
        "meta_element_set_no": 999,
        "meta_rev_at_epoch": 499,
        "meta_bstar": 0,
        "meta_mean_motion_dot": 4.1e-07,
        "meta_mean_motion_ddot": 0,
        "tle_line1": "1 53765U 22110A   25350.91377285  .00000041  00000+0  00000+0 0  9992",
        "tle_line2": "2 53765   0.0652 101.2830 0002307 141.3704 174.8367  1.00270385  4992"
      },
      "geometry": {
        "type": "Point",
        "coordinates": [
          -33.18229806616602,
          -0.052381596296529054
        ]
      }
    },
    {
      "type": "Feature",
      "properties": {
        "norad_id": 54048,
        "name": "EUTELSAT HOTBIRD 13F",
        "group": "eutelsat",
        "lat": 0.02953036120431542,
        "lon": -22.95618350774706,
        "alt_km": 35777.02647093016,
        "timestamp": "2025-12-17T15:50:09.448554+00:00",
        "meta_object_name": "EUTELSAT HOTBIRD 13F",
        "meta_object_id": "2022-134A",
        "meta_epoch": "2025-12-14T22:02:26.653056",
        "meta_mean_motion": 1.0027139,
        "meta_eccentricity": 0.00023413,
        "meta_inclination": 0.0492,
        "meta_ra_of_asc_node": 293.4772,
        "meta_arg_of_pericenter": 68.5165,
        "meta_mean_anomaly": 65.4415,
        "meta_ephemeris_type": 0,
        "meta_classification_type": "U",
        "meta_norad_cat_id": 54048,
        "meta_element_set_no": 999,
        "meta_rev_at_epoch": 1152,
        "meta_bstar": 0,
        "meta_mean_motion_dot": 1.07e-06,
        "meta_mean_motion_ddot": 0,
        "tle_line1": "1 54048U 22134A   25348.91836404  .00000107  00000+0  00000+0 0  9996",
        "tle_line2": "2 54048   0.0492 293.4772 0002341  68.5165  65.4415  1.00271390 11520"
      },
      "geometry": {
        "type": "Point",
        "coordinates": [
          -22.95618350774706,
          0.02953036120431542
        ]
      }
    },
    {
      "type": "Feature",
      "properties": {
        "norad_id": 54225,
        "name": "EUTELSAT HOTBIRD 13G",
        "group": "eutelsat",
        "lat": 0.03804185421628619,
        "lon": -22.940723035726787,
        "alt_km": 35793.36760720951,
        "timestamp": "2025-12-17T15:50:09.448566+00:00",
        "meta_object_name": "EUTELSAT HOTBIRD 13G",
        "meta_object_id": "2022-146A",
        "meta_epoch": "2025-12-16T23:41:28.142592",
        "meta_mean_motion": 1.00272,
        "meta_eccentricity": 0.00018519,
        "meta_inclination": 0.051,
        "meta_ra_of_asc_node": 235.253,
        "meta_arg_of_pericenter": 299.0172,
        "meta_mean_anomaly": 279.9588,
        "meta_ephemeris_type": 0,
        "meta_classification_type": "U",
        "meta_norad_cat_id": 54225,
        "meta_element_set_no": 999,
        "meta_rev_at_epoch": 564,
        "meta_bstar": 0,
        "meta_mean_motion_dot": 1.12e-06,
        "meta_mean_motion_ddot": 0,
        "tle_line1": "1 54225U 22146A   25350.98713128  .00000112  00000+0  00000+0 0  9999",
        "tle_line2": "2 54225   0.0510 235.2530 0001851 299.0172 279.9588  1.00272000  5646"
      },
      "geometry": {
        "type": "Point",
        "coordinates": [
          -22.940723035726787,
          0.03804185421628619
        ]
      }
    }
  ]
}